{
  "type": "FeatureCollection",
  "features": [
    {
      "type": "Feature",
      "properties": {
        "norad_id": 40545,
        "name": "GSAT0204 (GALILEO 8)",
        "group": "gnss",
        "lat": -56.594090059027494,
        "lon": -111.05283849299634,
        "alt_km": 23209.52032514092,
        "timestamp": "2025-12-13T08:49:15.928629+00:00",
        "meta_object_name": "GSAT0204 (GALILEO 8)",
        "meta_object_id": "2015-017B",
        "meta_epoch": "2025-12-11T04:11:34.346112",
        "meta_mean_motion": 1.70475574,
        "meta_eccentricity": 0.0006249,
        "meta_inclination": 56.853,
        "meta_ra_of_asc_node": 346.7403,
        "meta_arg_of_pericenter": 262.765,
        "meta_mean_anomaly": 97.1808,
        "meta_ephemeris_type": 0,
        "meta_classification_type": "U",
        "meta_norad_cat_id": 40545,
        "meta_element_set_no": 999,
        "meta_rev_at_epoch": 2904,
        "meta_bstar": 0,
        "meta_mean_motion_dot": -8.8e-07,
        "meta_mean_motion_ddot": 0,
        "tle_line1": "1 40545U 15017B   25345.17470308 -.00000088  00000+0  00000+0 0  9996",
        "tle_line2": "2 40545  56.8530 346.7403 0006249 262.7650  97.1808  1.70475574 29041"
      },
      "geometry": {
        "type": "Point",
        "coordinates": [
          -111.05283849299634,
          -56.594090059027494
        ]
      }
    },
    {
      "type": "Feature",
      "properties": {
        "norad_id": 40549,
        "name": "BEIDOU-3S IGSO-1S (C31)",
        "group": "gnss",
        "lat": 8.395080689798652,
        "lon": -55.10962812183003,
        "alt_km": 35934.839285306065,
        "timestamp": "2025-12-13T08:49:15.928643+00:00",
        "meta_object_name": "BEIDOU-3S IGSO-1S (C31)",
        "meta_object_id": "2015-019A",
        "meta_epoch": "2025-12-11T20:45:03.352032",
        "meta_mean_motion": 1.00292963,
        "meta_eccentricity": 0.0036964,
        "meta_inclination": 49.5542,
        "meta_ra_of_asc_node": 297.7211,
        "meta_arg_of_pericenter": 195.3449,
        "meta_mean_anomaly": 352.9961,
        "meta_ephemeris_type": 0,
        "meta_classification_type": "U",
        "meta_norad_cat_id": 40549,
        "meta_element_set_no": 999,
        "meta_rev_at_epoch": 3919,
        "meta_bstar": 0,
        "meta_mean_motion_dot": -1.91e-06,
        "meta_mean_motion_ddot": 0,
        "tle_line1": "1 40549U 15019A   25345.86462213 -.00000191  00000+0  00000+0 0  9999",
        "tle_line2": "2 40549  49.5542 297.7211 0036964 195.3449 352.9961  1.00292963 39194"
      },
      "geometry": {
        "type": "Point",
        "coordinates": [
          -55.10962812183003,
          8.395080689798652
        ]
      }
    },
    {
      "type": "Feature",
      "properties": {
        "norad_id": 40730,
        "name": "GPS BIIF-10 (PRN 08)",
        "group": "gnss",
        "lat": 54.053566595344975,
        "lon": -0.018130135688096845,
        "alt_km": 20027.96087271699,
        "timestamp": "2025-12-13T08:49:15.928655+00:00",
        "meta_object_name": "GPS BIIF-10 (PRN 08)",
        "meta_object_id": "2015-033A",
        "meta_epoch": "2025-12-12T18:00:46.336320",
        "meta_mean_motion": 2.00565613,
        "meta_eccentricity": 0.01109707,
        "meta_inclination": 54.1306,
        "meta_ra_of_asc_node": 274.7724,
        "meta_arg_of_pericenter": 26.8075,
        "meta_mean_anomaly": 333.7759,
        "meta_ephemeris_type": 0,
        "meta_classification_type": "U",
        "meta_norad_cat_id": 40730,
        "meta_element_set_no": 999,
        "meta_rev_at_epoch": 7625,
        "meta_bstar": 0,
        "meta_mean_motion_dot": -7.4e-07,
        "meta_mean_motion_ddot": 0,
        "tle_line1": "1 40730U 15033A   25346.75053630 -.00000074  00000+0  00000+0 0  9995",
        "tle_line2": "2 40730  54.1306 274.7724 0110970  26.8075 333.7759  2.00565613 76259"
      },
      "geometry": {
        "type": "Point",
        "coordinates": [
          -0.018130135688096845,
          54.053566595344975
        ]
      }
    },
    {
      "type": "Feature",
      "properties": {
        "norad_id": 40748,
        "name": "BEIDOU-3S M2S (C58)",
        "group": "gnss",
        "lat": -48.16276404453127,
        "lon": 179.77786864734946,
        "alt_km": 21501.82425091101,
        "timestamp": "2025-12-13T08:49:15.928667+00:00",
        "meta_object_name": "BEIDOU-3S M2S (C58)",
        "meta_object_id": "2015-037A",
        "meta_epoch": "2025-12-11T22:15:26.437248",
        "meta_mean_motion": 1.8622897,
        "meta_eccentricity": 0.00123447,
        "meta_inclination": 55.0397,
        "meta_ra_of_asc_node": 308.4912,
        "meta_arg_of_pericenter": 267.8245,
        "meta_mean_anomaly": 92.025,
        "meta_ephemeris_type": 0,
        "meta_classification_type": "U",
        "meta_norad_cat_id": 40748,
        "meta_element_set_no": 999,
        "meta_rev_at_epoch": 7063,
        "meta_bstar": 0,
        "meta_mean_motion_dot": -8.9e-07,
        "meta_mean_motion_ddot": 0,
        "tle_line1": "1 40748U 15037A   25345.92738932 -.00000089  00000+0  00000+0 0  9997",
        "tle_line2": "2 40748  55.0397 308.4912 0012344 267.8245  92.0250  1.86228970 70636"
      },
      "geometry": {
        "type": "Point",
        "coordinates": [
          179.77786864734946,
          -48.16276404453127
        ]
      }
    },
    {
      "type": "Feature",
      "properties": {
        "norad_id": 40749,
        "name": "BEIDOU-3S M1S (C57)",
        "group": "gnss",
        "lat": 55.01185514649564,
        "lon": 40.747027116304984,
        "alt_km": 21519.921505044098,
        "timestamp": "2025-12-13T08:49:15.928678+00:00",
        "meta_object_name": "BEIDOU-3S M1S (C57)",
        "meta_object_id": "2015-037B",
        "meta_epoch": "2025-12-11T14:53:54.000096",
        "meta_mean_motion": 1.86253918,
        "meta_eccentricity": 0.00034406,
        "meta_inclination": 55.0364,
        "meta_ra_of_asc_node": 308.4915,
        "meta_arg_of_pericenter": 358.1692,
        "meta_mean_anomaly": 1.8205,
        "meta_ephemeris_type": 0,
        "meta_classification_type": "U",
        "meta_norad_cat_id": 40749,
        "meta_element_set_no": 999,
        "meta_rev_at_epoch": 7063,
        "meta_bstar": 0,
        "meta_mean_motion_dot": -8.8e-07,
        "meta_mean_motion_ddot": 0,
        "tle_line1": "1 40749U 15037B   25345.62076389 -.00000088  00000+0  00000+0 0  9995",
        "tle_line2": "2 40749  55.0364 308.4915 0003440 358.1692   1.8205  1.86253918 70639"
      },
      "geometry": {
        "type": "Point",
        "coordinates": [
          40.747027116304984,
          55.01185514649564
        ]
      }
    },
    {
      "type": "Feature",
      "properties": {
        "norad_id": 40889,
        "name": "GSAT0205 (GALILEO 9)",
        "group": "gnss",
        "lat": 37.45552674183473,
        "lon": -100.82743539167797,
        "alt_km": 23200.447636356766,
        "timestamp": "2025-12-13T08:49:15.928693+00:00",
        "meta_object_name": "GSAT0205 (GALILEO 9)",
        "meta_object_id": "2015-045A",
        "meta_epoch": "2025-12-10T08:33:32.148576",
        "meta_mean_motion": 1.7047308,
        "meta_eccentricity": 0.0005904,
        "meta_inclination": 55.0041,
        "meta_ra_of_asc_node": 226.8241,
        "meta_arg_of_pericenter": 38.7722,
        "meta_mean_anomaly": 321.3515,
        "meta_ephemeris_type": 0,
        "meta_classification_type": "U",
        "meta_norad_cat_id": 40889,
        "meta_element_set_no": 999,
        "meta_rev_at_epoch": 6379,
        "meta_bstar": 0,
        "meta_mean_motion_dot": 9e-08,
        "meta_mean_motion_ddot": 0,
        "tle_line1": "1 40889U 15045A   25344.35662209  .00000009  00000+0  00000+0 0  9992",
        "tle_line2": "2 40889  55.0041 226.8241 0005904  38.7722 321.3515  1.70473080 63793"
      },
      "geometry": {
        "type": "Point",
        "coordinates": [
          -100.82743539167797,
          37.45552674183473
        ]
      }
    },
    {
      "type": "Feature",
      "properties": {
        "norad_id": 40890,
        "name": "GSAT0206 (GALILEO 10)",
        "group": "gnss",
        "lat": -54.93536184875727,
        "lon": 141.03200785218564,
        "alt_km": 23234.6378177474,
        "timestamp": "2025-12-13T08:49:15.928705+00:00",
        "meta_object_name": "GSAT0206 (GALILEO 10)",
        "meta_object_id": "2015-045B",
        "meta_epoch": "2025-12-11T03:55:56.933760",
        "meta_mean_motion": 1.70473071,
        "meta_eccentricity": 0.00038554,
        "meta_inclination": 55.0029,
        "meta_ra_of_asc_node": 226.7968,
        "meta_arg_of_pericenter": 36.8797,
        "meta_mean_anomaly": 323.2259,
        "meta_ephemeris_type": 0,
        "meta_classification_type": "U",
        "meta_norad_cat_id": 40890,
        "meta_element_set_no": 999,
        "meta_rev_at_epoch": 6383,
        "meta_bstar": 0,
        "meta_mean_motion_dot": 9e-08,
        "meta_mean_motion_ddot": 0,
        "tle_line1": "1 40890U 15045B   25345.16385340  .00000009  00000+0  00000+0 0  9992",
        "tle_line2": "2 40890  55.0029 226.7968 0003855  36.8797 323.2259  1.70473071 63831"
      },
      "geometry": {
        "type": "Point",
        "coordinates": [
          141.03200785218564,
          -54.93536184875727
        ]
      }
    }
  ]
}